GSAT0101 (PRN E11)      
1 37846U 11060A   20341.40812038 -.00000064  00000-0  00000-0 0  9993
2 37846  56.7321  36.5655 0002345 303.2659  56.7729  1.70475194 56708
GSAT0102 (PRN E12)      
1 37847U 11060B   20344.23948833 -.00000071  00000-0  00000-0 0  9999
2 37847  56.7342  36.4871 0004454 292.5593  51.3075  1.70475264 56759
GSAT0103 (PRN E19)      
1 38857U 12055A   20343.79620614  .00000102  00000-0  00000+0 0  9993
2 38857  55.0082 156.9828 0001152 230.5417 129.4714  1.70473649 50782
GSAT0104 (PRN E20)      
1 38858U 12055B   20340.79768139  .00000095  00000-0  00000-0 0  9998
2 38858  55.0074 157.0648 0000457 131.2778 228.7442  1.70473651 50683
GSAT0201 (PRN E18)      
1 40128U 14050A   20344.03796841 -.00000076  00000-0  00000+0 0  9999
2 40128  50.5367 354.4109 1654454 105.0893 273.8062  1.85519341 42858
GSAT0202 (PRN E14)      
1 40129U 14050B   20344.30105614 -.00000076  00000-0  00000-0 0  9993
2 40129  50.5708 353.4432 1652012 105.9108 272.9146  1.85520019 43085
GSAT0203 (PRN E26)      
1 40544U 15017A   20344.12217584 -.00000071  00000-0  00000+0 0  9992
2 40544  56.5274  36.6003 0005261 247.0750 112.9268  1.70474845 35495
GSAT0204 (PRN E22)      
1 40545U 15017B   20343.90314479 -.00000070  00000-0  00000-0 0  9999
2 40545  56.5336  36.6230 0003660 220.5861 139.4440  1.70475142 35494
GSAT0205 (PRN E24)      
1 40889U 15045A   20342.97196964 -.00000019  00000-0  00000-0 0  9997
2 40889  56.0203 277.3224 0005129 356.3805   3.6277  1.70474472 32625
GSAT0206 (PRN E30)      
1 40890U 15045B   20343.77808053 -.00000024  00000-0  00000+0 0  9992
2 40890  56.0189 277.2966 0003741 341.8681  18.1273  1.70474455 32663
GSAT0209 (PRN E09)      
1 41174U 15079A   20342.77860248  .00000100  00000-0  00000-0 0  9993
2 41174  55.0226 156.7100 0002646 343.9545  16.0583  1.70473278 30555
GSAT0208 (PRN E08)      
1 41175U 15079B   20344.17150379  .00000102  00000-0  00000+0 0  9998
2 41175  55.0208 156.6709 0002038 357.7610   2.2610  1.70473225 30999
GSAT0211 (PRN E02)      
1 41549U 16030A   20343.11953359 -.00000020  00000-0  00000-0 0  9994
2 41549  56.1615 277.1892 0004904 319.6829  40.2923  1.70474244 28283
GSAT0210 (PRN E01)      
1 41550U 16030B   20343.99898842 -.00000025  00000-0  00000+0 0  9991
2 41550  56.1609 277.1666 0004109 297.0349  62.9311  1.70474199 28270
GSAT0207 (PRN E07)      
1 41859U 16069A   20344.24454737  .00000102  00000-0  00000+0 0  9990
2 41859  54.6816 156.9887 0002011 322.4032  37.6062  1.70473194 25268
GSAT0212 (PRN E03)      
1 41860U 16069B   20342.92482401  .00000100  00000-0  00000-0 0  9993
2 41860  54.6786 157.0240 0002289  14.0560 345.9723  1.70473242 25261
GSAT0213 (PRN E04)      
1 41861U 16069C   20342.70394708  .00000099  00000-0  00000-0 0  9999
2 41861  54.6810 157.0342 0001069 263.9568  96.0526  1.70473345 25260
GSAT0214 (PRN E05)      
1 41862U 16069D   20342.85102534  .00000100  00000-0  00000-0 0  9993
2 41862  54.6787 157.0254 0000285 301.7906  58.2285  1.70473299 25251
GSAT0215 (PRN E21)      
1 43055U 17079A   20343.92765888 -.00000025  00000-0  00000-0 0  9994
2 43055  56.1364 277.0079 0003397 295.6120  64.3613  1.70473424 18614
GSAT0216 (PRN E25)      
1 43056U 17079B   20343.04712593 -.00000019  00000-0  00000-0 0  9996
2 43056  56.1374 277.0318 0005193 288.5579  71.3978  1.70473542 18610
GSAT0217 (PRN E27)      
1 43057U 17079C   20343.85379607 -.00000024  00000-0  00000-0 0  9997
2 43057  56.1350 277.0100 0004951 300.3861  59.5737  1.70473516 18614
GSAT0218 (PRN E31)      
1 43058U 17079D   20344.07379681 -.00000026  00000-0  00000-0 0  9997
2 43058  56.1348 277.0014 0005514 284.5235  75.4232  1.70473504 18614
GSAT0221 (PRN E15)      
1 43564U 18060A   20343.97280365 -.00000070  00000-0  00000+0 0  9996
2 43564  56.9135  36.2772 0005656 261.8458  98.1480  1.70476083 14805
GSAT0222 (PRN E33)      
1 43565U 18060B   20343.01948732 -.00000067  00000-0  00000-0 0  9998
2 43565  56.9150  36.3030 0005213 267.6346  92.3644  1.70476085 14822
GSAT0219 (PRN E36)      
1 43566U 18060C   20343.82646295 -.00000069  00000-0  00000+0 0  9998
2 43566  56.9164  36.2825 0005026 262.9323  97.0686  1.70475974 14817
GSAT0220 (PRN E13)      
1 43567U 18060D   20343.45976505 -.00000068  00000-0  00000-0 0  9998
2 43567  56.9157  36.2937 0005154 264.0216  95.9779  1.70475807 14792
